$$SOE
2461295.500000000, A.D. 2026-Sep-12 00:00:00.0000, -3.172623422945678E+08, -2.765536904364263E+08, 3.697770022484675E+06,
2461302.500000000, A.D. 2026-Sep-19 00:00:00.0000, -3.085764771699964E+08, -2.837879397045184E+08, 3.821487119008154E+06,
2461309.500000000, A.D. 2026-Sep-26 00:00:00.0000, -2.996873411926679E+08, -2.908352405973810E+08, 3.942686994303882E+06,
2461316.500000000, A.D. 2026-Oct-03 00:00:00.0000, -2.905984844185100E+08, -2.976887150143105E+08, 4.061259525381416E+06,
2461323.500000000, A.D. 2026-Oct-10 00:00:00.0000, -2.813137278463349E+08, -3.043415071517378E+08, 4.177094464704528E+06,
2461330.500000000, A.D. 2026-Oct-17 00:00:00.0000, -2.718371682826306E+08, -3.107867956078584E+08, 4.290081622967735E+06,
2461337.500000000, A.D. 2026-Oct-24 00:00:00.0000, -2.621731826704676E+08, -3.170178061863962E+08, 4.400111054202676E+06,
2461344.500000000, A.D. 2026-Oct-31 00:00:00.0000, -2.523264317250139E+08, -3.230278254477147E+08, 4.507073228708163E+06,
2461351.500000000, A.D. 2026-Nov-07 00:00:00.0000, -2.423018624769700E+08, -3.288102149090921E+08, 4.610859168702304E+06,
2461358.500000000, A.D. 2026-Nov-14 00:00:00.0000, -2.321047094631156E+08, -3.343584249765555E+08, 4.711360600683376E+06,
2461365.500000000, A.D. 2026-Nov-21 00:00:00.0000, -2.217404963155642E+08, -3.396660078894766E+08, 4.808470346168071E+06,
2461372.500000000, A.D. 2026-Nov-28 00:00:00.0000, -2.112150386879396E+08, -3.447266326432113E+08, 4.902082796078220E+06,
2461379.500000000, A.D. 2026-Dec-05 00:00:00.0000, -2.005344448417765E+08, -3.495341024988586E+08, 4.992094082668483E+06,
2461386.500000000, A.D. 2026-Dec-12 00:00:00.0000, -1.897051136748175E+08, -3.540823719152560E+08, 5.078402187739149E+06,
2461393.500000000, A.D. 2026-Dec-19 00:00:00.0000, -1.787337320277958E+08, -3.583655628345773E+08, 5.160907160321549E+06,
2461400.500000000, A.D. 2026-Dec-26 00:00:00.0000, -1.676272713645297E+08, -3.623779811200217E+08, 5.239511385286868E+06,
2461407.500000000, A.D. 2027-Jan-02 00:00:00.0000, -1.563929835061178E+08, -3.661141332607256E+08, 5.314119861005768E+06,
2461414.500000000, A.D. 2027-Jan-09 00:00:00.0000, -1.450383952643960E+08, -3.695687432428691E+08, 5.384640475756973E+06,
2461421.500000000, A.D. 2027-Jan-16 00:00:00.0000, -1.335713019086508E+08, -3.727367694928116E+08, 5.450984279060364E+06,
2461428.500000000, A.D. 2027-Jan-23 00:00:00.0000, -1.219997593971538E+08, -3.756134218416466E+08, 5.513065739182904E+06,
2461435.500000000, A.D. 2027-Jan-30 00:00:00.0000, -1.103320751716130E+08, -3.781941784637530E+08, 5.570802964325607E+06,
2461442.500000000, A.D. 2027-Feb-06 00:00:00.0000, -9.857679708405364E+07, -3.804748023499950E+08, 5.624117874821410E+06,
2461449.500000000, A.D. 2027-Feb-13 00:00:00.0000, -8.674270091966540E+07, -3.824513559931964E+08, 5.672936466605097E+06,
2461456.500000000, A.D. 2027-Feb-20 00:00:00.0000, -7.483877889170758E+07, -3.841202149712740E+08, 5.717189316289783E+06,
2461463.500000000, A.D. 2027-Feb-27 00:00:00.0000, -6.287422773392520E+07, -3.854780835356944E+08, 5.756811935206503E+06,
2461470.500000000, A.D. 2027-Mar-06 00:00:00.0000, -5.085843340509235E+07, -3.865220101790059E+08, 5.791744850935072E+06,
2461477.500000000, A.D. 2027-Mar-13 00:00:00.0000, -3.880095405099487E+07, -3.872494010286206E+08, 5.821933729063779E+06,
2461484.500000000, A.D. 2027-Mar-20 00:00:00.0000, -2.671150240921439E+07, -3.876580317972757E+08, 5.847329568998814E+06,
2461491.500000000, A.D. 2027-Mar-27 00:00:00.0000, -1.459992751994908E+07, -3.877460587359184E+08, 5.867888908672780E+06,
2461498.500000000, A.D. 2027-Apr-03 00:00:00.0000, -2.476195613170197E+06, -3.875120285378115E+08, 5.883574013612688E+06,
2461505.500000000, A.D. 2027-Apr-10 00:00:00.0000, 9.649629808355490E+06, -3.869548870803973E+08, 5.894353044483572E+06,
2461512.500000000, A.D. 2027-Apr-17 00:00:00.0000, 2.176740862238756E+07, -3.860739869408643E+08, 5.900200198071301E+06,
2461519.500000000, A.D. 2027-Apr-24 00:00:00.0000, 3.386694545513923E+07, -3.848690936813191E+08, 5.901095808170110E+06,
2461526.500000000, A.D. 2027-May-01 00:00:00.0000, 4.593801195168948E+07, -3.833403908190670E+08, 5.897026380513281E+06,
2461533.500000000, A.D. 2027-May-08 00:00:00.0000, 5.797037013640861E+07, -3.814884826850281E+08, 5.887984594242424E+06,
2461540.500000000, A.D. 2027-May-15 00:00:00.0000, 6.995379524124567E+07, -3.793143941767076E+08, 5.873969484581232E+06,
2461547.500000000, A.D. 2027-May-22 00:00:00.0000, 8.187809630974276E+07, -3.768195699666028E+08, 5.854986737629890E+06,
2461554.500000000, A.D. 2027-May-29 00:00:00.0000, 9.373313780359332E+07, -3.740058746166298E+08, 5.831048668852165E+06,
2461561.500000000, A.D. 2027-Jun-05 00:00:00.0000, 1.055088629664921E+08, -3.708755904651181E+08, 5.802174059868768E+06,
2461568.500000000, A.D. 2027-Jun-12 00:00:00.0000, 1.171953168066918E+08, -3.674314128666691E+08, 5.768388073156789E+06,
2461575.500000000, A.D. 2027-Jun-19 00:00:00.0000, 1.287826682371944E+08, -3.636764437443876E+08, 5.729722198978156E+06,
2461582.500000000, A.D. 2027-Jun-26 00:00:00.0000, 1.402612315256277E+08, -3.596141837529563E+08, 5.686214188134253E+06,
2461589.500000000, A.D. 2027-Jul-03 00:00:00.0000, 1.516214870623373E+08, -3.552485230935349E+08, 5.637907959871292E+06,
2461596.500000000, A.D. 2027-Jul-10 00:00:00.0000, 1.628541013650910E+08, -3.505837310317976E+08, 5.584853483105257E+06,
2461603.500000000, A.D. 2027-Jul-17 00:00:00.0000, 1.739499462456805E+08, -3.456244442277311E+08, 5.527106625346601E+06,
2461610.500000000, A.D. 2027-Jul-24 00:00:00.0000, 1.849001171933733E+08, -3.403756540197759E+08, 5.464728950980142E+06,
2461617.500000000, A.D. 2027-Jul-31 00:00:00.0000, 1.956959512954795E+08, -3.348426925180907E+08, 5.397787451988608E+06,
2461624.500000000, A.D. 2027-Aug-07 00:00:00.0000, 2.063290444131132E+08, -3.290312164547186E+08, 5.326354325478569E+06,
2461631.500000000, A.D. 2027-Aug-14 00:00:00.0000, 2.167912652397389E+08, -3.229471891496125E+08, 5.250506990050584E+06,
2461638.500000000, A.D. 2027-Aug-21 00:00:00.0000, 2.270747668005680E+08, -3.165968640657773E+08, 5.170328010775670E+06,
2461645.500000000, A.D. 2027-Aug-28 00:00:00.0000, 2.371719987769857E+08, -3.099867688640947E+08, 5.085904717903256E+06,
2461652.500000000, A.D. 2027-Sep-04 00:00:00.0000, 2.470757194401581E+08, -3.031236875745180E+08, 4.997328833869025E+06,
2461659.500000000, A.D. 2027-Sep-11 00:00:00.0000, 2.567790057742359E+08, -2.960146416652972E+08, 4.904696184251860E+06,
2461666.500000000, A.D. 2027-Sep-18 00:00:00.0000, 2.662752619088623E+08, -2.886668707793520E+08, 4.808106428922787E+06,
2461673.500000000, A.D. 2027-Sep-25 00:00:00.0000, 2.755582260876107E+08, -2.810878133320656E+08, 4.707662787581369E+06,
2461680.500000000, A.D. 2027-Oct-02 00:00:00.0000, 2.846219762560421E+08, -2.732850870565820E+08, 4.603471756541356E+06,
2461687.500000000, A.D. 2027-Oct-09 00:00:00.0000, 2.934609343104678E+08, -2.652664696107217E+08, 4.495642815738782E+06,
2461694.500000000, A.D. 2027-Oct-16 00:00:00.0000, 3.020698690983938E+08, -2.570398794044500E+08, 4.384288116917819E+06,
2461701.500000000, A.D. 2027-Oct-23 00:00:00.0000, 3.104438984679216E+08, -2.486133567511142E+08, 4.269522129883483E+06,
2461708.500000000, A.D. 2027-Oct-30 00:00:00.0000, 3.185784907884094E+08, -2.399950448243526E+08, 4.151461263822421E+06,
2461715.500000000, A.D. 2027-Nov-06 00:00:00.0000, 3.264694648343945E+08, -2.311931693808205E+08, 4.030223664320529E+06,
2461722.500000000, A.D. 2027-Nov-13 00:00:00.0000, 3.341129861061838E+08, -2.222160194064324E+08, 3.905929199868754E+06,
2461729.500000000, A.D. 2027-Nov-20 00:00:00.0000, 3.415055625507539E+08, -2.130719309430046E+08, 3.778699194006756E+06,
2461736.500000000, A.D. 2027-Nov-27 00:00:00.0000, 3.486440413679760E+08, -2.037692711936029E+08, 3.648655998045459E+06,
2461743.500000000, A.D. 2027-Dec-04 00:00:00.0000, 3.555256049497435E+08, -1.943164220494196E+08, 3.515922665769413E+06,
2461750.500000000, A.D. 2027-Dec-11 00:00:00.0000, 3.621477654729261E+08, -1.847217640509369E+08, 3.380622702686138E+06,
2461757.500000000, A.D. 2027-Dec-18 00:00:00.0000, 3.685083584926463E+08, -1.749936611616229E+08, 3.242879837427028E+06,
2461764.500000000, A.D. 2027-Dec-25 00:00:00.0000, 3.746055357607340E+08, -1.651404463859960E+08, 3.102817801565252E+06,
2461771.500000000, A.D. 2028-Jan-01 00:00:00.0000, 3.804377573861006E+08, -1.551704082394511E+08, 2.960560115722083E+06,
$$EOE